[{"OBJECT_NAME":"COSMOS 2502","OBJECT_ID":"2014-086A","EPOCH":"2026-03-09T23:20:55.492800","MEAN_MOTION":13.97809057,"ECCENTRICITY":0.0007913,"INCLINATION":67.151,"RA_OF_ASC_NODE":248.8108,"ARG_OF_PERICENTER":280.0758,"MEAN_ANOMALY":79.9434,"EPHEMERIS_TYPE":0,"CLASSIFICATION_TYPE":"U","NORAD_CAT_ID":40358,"ELEMENT_SET_NO":999,"REV_AT_EPOCH":57008,"BSTAR":4.1810399e-5,"MEAN_MOTION_DOT":-1.6e-7,"MEAN_MOTION_DDOT":0},{"OBJECT_NAME":"SL-16 DEB","OBJECT_ID":"1992-093CD","EPOCH":"2026-03-09T16:26:18.364992","MEAN_MOTION":14.18040196,"ECCENTRICITY":0.00932024,"INCLINATION":70.9649,"RA_OF_ASC_NODE":41.9589,"ARG_OF_PERICENTER":43.058,"MEAN_ANOMALY":9.8269,"EPHEMERIS_TYPE":0,"CLASSIFICATION_TYPE":"U","NORAD_CAT_ID":22388,"ELEMENT_SET_NO":999,"REV_AT_EPOCH":69830,"BSTAR":0.0014629758,"MEAN_MOTION_DOT":3.084e-5,"MEAN_MOTION_DDOT":0}]
